[{"OBJECT_NAME":"STARLINK-32125","OBJECT_ID":"2024-131F","EPOCH":"2026-03-09T05:38:26.914272","MEAN_MOTION":15.301873,"ECCENTRICITY":0.00012418,"INCLINATION":53.1613,"RA_OF_ASC_NODE":54.2172,"ARG_OF_PERICENTER":79.5558,"MEAN_ANOMALY":280.5582,"EPHEMERIS_TYPE":0,"CLASSIFICATION_TYPE":"U","NORAD_CAT_ID":60260,"ELEMENT_SET_NO":999,"REV_AT_EPOCH":9165,"BSTAR":-5.809984e-6,"MEAN_MOTION_DOT":-5.31e-6,"MEAN_MOTION_DDOT":0},{"OBJECT_NAME":"ARIANE 40 R\/B","OBJECT_ID":"1999-064C","EPOCH":"2026-03-09T18:24:37.025280","MEAN_MOTION":15.31364882,"ECCENTRICITY":0.00050095,"INCLINATION":98.1631,"RA_OF_ASC_NODE":150.8872,"ARG_OF_PERICENTER":91.4057,"MEAN_ANOMALY":268.7755,"EPHEMERIS_TYPE":0,"CLASSIFICATION_TYPE":"U","NORAD_CAT_ID":25979,"ELEMENT_SET_NO":999,"REV_AT_EPOCH":42869,"BSTAR":0.00066758353,"MEAN_MOTION_DOT":0.00020173,"MEAN_MOTION_DDOT":0}]
